CSS (TIANHE)            
1 48274U 21035A   23301.74117396  .00019490  00000+0  23409-3 0  9996
2 48274  41.4718  62.7733 0004606 346.0482  14.0229 15.60402674142711
